STARLINK-30429          
1 57876U 23144N   26068.01729296  .00004800  00000+0  18839-3 0  9998
2 57876  43.0056 289.0794 0001215 320.7626  39.3137 15.26759403137534
VSP RF A1               
1 59135U 24043AP  26066.03073316  .00000577  00000+0  25199-4 0  9997
2 59135  97.5247 201.5379 0009431 234.6315 125.4042 15.26179596111403
